[{"OBJECT_NAME":"TEVEL2-6","OBJECT_ID":"2025-052F","EPOCH":"2026-03-09T15:35:24.554400","MEAN_MOTION":15.30760889,"ECCENTRICITY":0.0004769,"INCLINATION":97.4016,"RA_OF_ASC_NODE":325.0381,"ARG_OF_PERICENTER":95.6604,"MEAN_ANOMALY":264.5181,"EPHEMERIS_TYPE":0,"CLASSIFICATION_TYPE":"U","NORAD_CAT_ID":63215,"ELEMENT_SET_NO":999,"REV_AT_EPOCH":5486,"BSTAR":0.00070909,"MEAN_MOTION_DOT":0.00021046,"MEAN_MOTION_DDOT":0},{"OBJECT_NAME":"STARLINK-36420","OBJECT_ID":"2026-003P","EPOCH":"2026-03-09T12:00:46.948032","MEAN_MOTION":15.27592799,"ECCENTRICITY":0.00015663,"INCLINATION":43.0005,"RA_OF_ASC_NODE":228.245,"ARG_OF_PERICENTER":255.7732,"MEAN_ANOMALY":104.2945,"EPHEMERIS_TYPE":0,"CLASSIFICATION_TYPE":"U","NORAD_CAT_ID":67347,"ELEMENT_SET_NO":999,"REV_AT_EPOCH":879,"BSTAR":0.0010183321,"MEAN_MOTION_DOT":0.00027877,"MEAN_MOTION_DDOT":0}]
